FLOCK 2E'-12            
1 41578U 98067KC  17345.79500178  .00068264  00000-0  24690-3 0  9992
2 41578  51.6239 178.7928 0005138 158.4674 201.6547 15.87939061 87309
